CTC1_L_00045016-03
1 10062U 22190ZD  26075.70030093  .00000000  00000+0  00000-0 0  9994
2 10062  45.0000 180.0000 0000000   0.0000   0.0000 15.08756051    18
CTC1_L_00045016-04
1 10063U 22081MO  26075.70030093  .00000000  00000+0  00000-0 0  9994
2 10063  45.0000 180.0000 0000000   0.0000  90.0000 15.08756051    18
CTC1_L_00045017-01
1 10064U 24348NE  26075.70030093  .00000000  00000+0  00000-0 0  9993
2 10064  45.0000 192.0000 0000000   0.0000 192.0000 15.08756051    15
CTC1_L_00045017-02
1 10065U 25811YE  26075.70030093  .00000000  00000+0  00000-0 0  9990
2 10065  45.0000 192.0000 0000000   0.0000 282.0000 15.08756051    16
CTC1_L_00045017-03
1 10066U 26713BB  26075.70030093  .00000000  00000+0  00000-0 0  9993
2 10066  45.0000 192.0000 0000000   0.0000  12.0000 15.08756051    18
CTC1_L_00045017-04
1 10067U 26028PF  26075.70030093  .00000000  00000+0  00000-0 0  9993
2 10067  45.0000 192.0000 0000000   0.0000 102.0000 15.08756051    19
CTC1_L_00045018-01
1 10068U 25749MD  26075.70030093  .00000000  00000+0  00000-0 0  9993
2 10068  45.0000 204.0000 0000000   0.0000 204.0000 15.08756051    17
CTC1_L_00045018-02
1 10069U 26674UL  26075.70030093  .00000000  00000+0  00000-0 0  9992
2 10069  45.0000 204.0000 0000000   0.0000 294.0000 15.08756051    17
CTC1_L_00045018-03
1 10070U 25686LO  26075.70030093  .00000000  00000+0  00000-0 0  9996
2 10070  45.0000 204.0000 0000000   0.0000  24.0000 15.08756051    10
CTC1_L_00045018-04
1 10071U 22571HO  26075.70030093  .00000000  00000+0  00000-0 0  9997
2 10071  45.0000 204.0000 0000000   0.0000 114.0000 15.08756051    11
CTC1_L_00045019-01
1 10072U 23576ME  26075.70030093  .00000000  00000+0  00000-0 0  9994
2 10072  45.0000 216.0000 0000000   0.0000 216.0000 15.08756051    18
CTC1_L_00045019-02
1 10073U 24809RI  26075.70030093  .00000000  00000+0  00000-0 0  9995
2 10073  45.0000 216.0000 0000000   0.0000 306.0000 15.08756051    19
CTC1_L_00045019-03
1 10074U 24703AM  26075.70030093  .00000000  00000+0  00000-0 0  9999
2 10074  45.0000 216.0000 0000000   0.0000  36.0000 15.08756051    10
CTC1_L_00045019-04
1 10075U 23479FL  26075.70030093  .00000000  00000+0  00000-0 0  9999
2 10075  45.0000 216.0000 0000000   0.0000 126.0000 15.08756051    11
CTC1_L_00045020-01
1 10076U 22860SO  26075.70030093  .00000000  00000+0  00000-0 0  9993
2 10076  45.0000 228.0000 0000000   0.0000 228.0000 15.08756051    18
CTC1_L_00045020-02
1 10077U 25857AP  26075.70030093  .00000000  00000+0  00000-0 0  9993
2 10077  45.0000 228.0000 0000000   0.0000 318.0000 15.08756051    19
CTC1_L_00045020-03
1 10078U 25909WV  26075.70030093  .00000000  00000+0  00000-0 0  9992
2 10078  45.0000 228.0000 0000000   0.0000  48.0000 15.08756051    10
CTC1_L_00045020-04
1 10079U 26683XI  26075.70030093  .00000000  00000+0  00000-0 0  9993
2 10079  45.0000 228.0000 0000000   0.0000 138.0000 15.08756051    11
CTC1_L_00045021-01
1 10080U 25990VS  26075.70030093  .00000000  00000+0  00000-0 0  9995
2 10080  45.0000 240.0000 0000000   0.0000 240.0000 15.08756051    11
CTC1_L_00045021-02
1 10081U 25513X   26075.70030093  .00000000  00000+0  00000-0 0  9997
2 10081  45.0000 240.0000 0000000   0.0000 330.0000 15.08756051    12
CTC1_L_00045021-03
1 10082U 25871DO  26075.70030093  .00000000  00000+0  00000-0 0  9995
2 10082  45.0000 240.0000 0000000   0.0000  60.0000 15.08756051    13
CTC1_L_00045021-04
1 10083U 24029VM  26075.70030093  .00000000  00000+0  00000-0 0  9990
2 10083  45.0000 240.0000 0000000   0.0000 150.0000 15.08756051    14
CTC1_L_00045022-01
1 10084U 22194NE  26075.70030093  .00000000  00000+0  00000-0 0  9992
2 10084  45.0000 252.0000 0000000   0.0000 252.0000 15.08756051    11
CTC1_L_00045022-02
1 10085U 26533TN  26075.70030093  .00000000  00000+0  00000-0 0  9994
2 10085  45.0000 252.0000 0000000   0.0000 342.0000 15.08756051    12
CTC1_L_00045022-03
1 10086U 22646KZ  26075.70030093  .00000000  00000+0  00000-0 0  9996
2 10086  45.0000 252.0000 0000000   0.0000  72.0000 15.08756051    13
CTC1_L_00045022-04
1 10087U 25275ZT  26075.70030093  .00000000  00000+0  00000-0 0  9998
2 10087  45.0000 252.0000 0000000   0.0000 162.0000 15.08756051    14
CTC1_L_00045023-01
1 10088U 23211M   26075.70030093  .00000000  00000+0  00000-0 0  9997
2 10088  45.0000 264.0000 0000000   0.0000 264.0000 15.08756051    11
CTC1_L_00045023-02
1 10089U 25721HE  26075.70030093  .00000000  00000+0  00000-0 0  9996
2 10089  45.0000 264.0000 0000000   0.0000 354.0000 15.08756051    12
CTC1_L_00045023-03
1 10090U 26004YI  26075.70030093  .00000000  00000+0  00000-0 0  9993
2 10090  45.0000 264.0000 0000000   0.0000  84.0000 15.08756051    14
CTC1_L_00045023-04
1 10091U 22177NV  26075.70030093  .00000000  00000+0  00000-0 0  9991
2 10091  45.0000 264.0000 0000000   0.0000 174.0000 15.08756051    15
CTC1_L_00045024-01
1 10092U 25304PN  26075.70030093  .00000000  00000+0  00000-0 0  9997
2 10092  45.0000 276.0000 0000000   0.0000 276.0000 15.08756051    12
CTC1_L_00045024-02
1 10093U 24981RJ  26075.70030093  .00000000  00000+0  00000-0 0  9998
2 10093  45.0000 276.0000 0000000   0.0000   6.0000 15.08756051    14
CTC1_L_00045024-03
1 10094U 24680KP  26075.70030093  .00000000  00000+0  00000-0 0  9995
2 10094  45.0000 276.0000 0000000   0.0000  96.0000 15.08756051    14
CTC1_L_00045024-04
1 10095U 26608XE  26075.70030093  .00000000  00000+0  00000-0 0  9998
2 10095  45.0000 276.0000 0000000   0.0000 186.0000 15.08756051    15
CTC1_L_00045025-01
1 10096U 23425XJ  26075.70030093  .00000000  00000+0  00000-0 0  9993
2 10096  45.0000 288.0000 0000000   0.0000 288.0000 15.08756051    12
CTC1_L_00045025-02
1 10097U 25297VV  26075.70030093  .00000000  00000+0  00000-0 0  9993
2 10097  45.0000 288.0000 0000000   0.0000  18.0000 15.08756051    14
CTC1_L_00045025-03
1 10098U 26045CV  26075.70030093  .00000000  00000+0  00000-0 0  9996
2 10098  45.0000 288.0000 0000000   0.0000 108.0000 15.08756051    15
CTC1_L_00045025-04
1 10099U 26828UZ  26075.70030093  .00000000  00000+0  00000-0 0  9996
2 10099  45.0000 288.0000 0000000   0.0000 198.0000 15.08756051    15
CTC1_L_00045026-01
1 10100U 26627LE  26075.70030093  .00000000  00000+0  00000-0 0  9996
2 10100  45.0000 300.0000 0000000   0.0000 300.0000 15.08756051    18
CTC1_L_00045026-02
1 10101U 23811BU  26075.70030093  .00000000  00000+0  00000-0 0  9999
2 10101  45.0000 300.0000 0000000   0.0000  30.0000 15.08756051    19
CTC1_L_00045026-03
1 10102U 25321EI  26075.70030093  .00000000  00000+0  00000-0 0  9998
2 10102  45.0000 300.0000 0000000   0.0000 120.0000 15.08756051    10
CTC1_L_00045026-04
1 10103U 26941FI  26075.70030093  .00000000  00000+0  00000-0 0  9998
2 10103  45.0000 300.0000 0000000   0.0000 210.0000 15.08756051    11
CTC1_L_00045027-01
1 10104U 25517Y   26075.70030093  .00000000  00000+0  00000-0 0  9997
2 10104  45.0000 312.0000 0000000   0.0000 312.0000 15.08756051    18
CTC1_L_00045027-02
1 10105U 23302CX  26075.70030093  .00000000  00000+0  00000-0 0  9998
2 10105  45.0000 312.0000 0000000   0.0000  42.0000 15.08756051    19
CTC1_L_00045027-03
1 10106U 23756RC  26075.70030093  .00000000  00000+0  00000-0 0  9992
2 10106  45.0000 312.0000 0000000   0.0000 132.0000 15.08756051    10
CTC1_L_00045027-04
1 10107U 22118A   26075.70030093  .00000000  00000+0  00000-0 0  9994
2 10107  45.0000 312.0000 0000000   0.0000 222.0000 15.08756051    11
CTC1_L_00045028-01
1 10108U 23822NB  26075.70030093  .00000000  00000+0  00000-0 0  9998
2 10108  45.0000 324.0000 0000000   0.0000 324.0000 15.08756051    18
CTC1_L_00045028-02
1 10109U 25470SH  26075.70030093  .00000000  00000+0  00000-0 0  9990
2 10109  45.0000 324.0000 0000000   0.0000  54.0000 15.08756051    19
CTC1_L_00045028-03
1 10110U 25607VB  26075.70030093  .00000000  00000+0  00000-0 0  9994
2 10110  45.0000 324.0000 0000000   0.0000 144.0000 15.08756051    11
CTC1_L_00045028-04
1 10111U 25225QW  26075.70030093  .00000000  00000+0  00000-0 0  9991
2 10111  45.0000 324.0000 0000000   0.0000 234.0000 15.08756051    12
CTC1_L_00045029-01
1 10112U 25724DJ  26075.70030093  .00000000  00000+0  00000-0 0  9996
2 10112  45.0000 336.0000 0000000   0.0000 336.0000 15.08756051    19
CTC1_L_00045029-02
1 10113U 24657AP  26075.70030093  .00000000  00000+0  00000-0 0  9991
2 10113  45.0000 336.0000 0000000   0.0000  66.0000 15.08756051    10
CTC1_L_00045029-03
1 10114U 24510FW  26075.70030093  .00000000  00000+0  00000-0 0  9990
2 10114  45.0000 336.0000 0000000   0.0000 156.0000 15.08756051    11
CTC1_L_00045029-04
1 10115U 23637AJ  26075.70030093  .00000000  00000+0  00000-0 0  9990
2 10115  45.0000 336.0000 0000000   0.0000 246.0000 15.08756051    12
CTC1_L_00045030-01
1 10116U 26364KI  26075.70030093  .00000000  00000+0  00000-0 0  9991
2 10116  45.0000 348.0000 0000000   0.0000 348.0000 15.08756051    19
CTC1_L_00045030-02
1 10117U 23933XM  26075.70030093  .00000000  00000+0  00000-0 0  9991
2 10117  45.0000 348.0000 0000000   0.0000  78.0000 15.08756051    10
CTC1_L_00045030-03
1 10118U 25283CS  26075.70030093  .00000000  00000+0  00000-0 0  9992
2 10118  45.0000 348.0000 0000000   0.0000 168.0000 15.08756051    11
CTC1_L_00045030-04
1 10119U 25818GW  26075.70030093  .00000000  00000+0  00000-0 0  9997
2 10119  45.0000 348.0000 0000000   0.0000 258.0000 15.08756051    12
